[
  {
    "OBJECT_NAME": "STARLINK-35024",
    "OBJECT_ID": "25192G",
    "EPOCH": "2025-11-11T07:33:14.640192",
    "MEAN_MOTION": 15.39673383,
    "ECCENTRICITY": 0.0002511,
    "INCLINATION": 53.1575,
    "RA_OF_ASC_NODE": 69.7853,
    "ARG_OF_PERICENTER": 73.6496,
    "MEAN_ANOMALY": 286.4785,
    "EPHEMERIS_TYPE": 0,
    "CLASSIFICATION_TYPE": "U",
    "NORAD_CAT_ID": 65410,
    "ELEMENT_SET_NO": 999,
    "REV_AT_EPOCH": 1115,
    "BSTAR": 0.0016353000000000001,
    "MEAN_MOTION_DOT": 0.00065696,
    "MEAN_MOTION_DDOT": 0.0,
    "TLE_LINE1": "1 65410U 25192G   25315.31475278  .00065696  00000+0  16353-2 0  9999",
    "TLE_LINE2": "2 65410  53.1575  69.7853 0002511  73.6496 286.4785 15.39673383 11152",
    "COMMENT": "Grouped by shell and plane from TLE"
  },
  {
    "OBJECT_NAME": "STARLINK-35003",
    "OBJECT_ID": "25192K",
    "EPOCH": "2025-11-11T06:46:26.144256",
    "MEAN_MOTION": 15.39663584,
    "ECCENTRICITY": 0.0001271,
    "INCLINATION": 53.1598,
    "RA_OF_ASC_NODE": 69.5797,
    "ARG_OF_PERICENTER": 79.4606,
    "MEAN_ANOMALY": 280.6542,
    "EPHEMERIS_TYPE": 0,
    "CLASSIFICATION_TYPE": "U",
    "NORAD_CAT_ID": 65413,
    "ELEMENT_SET_NO": 999,
    "REV_AT_EPOCH": 1115,
    "BSTAR": 0.0024653,
    "MEAN_MOTION_DOT": 0.0009965,
    "MEAN_MOTION_DDOT": 0.0,
    "TLE_LINE1": "1 65413U 25192K   25315.28224704  .00099650  00000+0  24653-2 0  9993",
    "TLE_LINE2": "2 65413  53.1598  69.5797 0001271  79.4606 280.6542 15.39663584 11153",
    "COMMENT": "Grouped by shell and plane from TLE"
  },
  {
    "OBJECT_NAME": "STARLINK-35085",
    "OBJECT_ID": "25192R",
    "EPOCH": "2025-11-11T07:46:08.404032",
    "MEAN_MOTION": 15.39643285,
    "ECCENTRICITY": 0.0001422,
    "INCLINATION": 53.1588,
    "RA_OF_ASC_NODE": 69.8404,
    "ARG_OF_PERICENTER": 114.4354,
    "MEAN_ANOMALY": 245.6799,
    "EPHEMERIS_TYPE": 0,
    "CLASSIFICATION_TYPE": "U",
    "NORAD_CAT_ID": 65419,
    "ELEMENT_SET_NO": 999,
    "REV_AT_EPOCH": 1115,
    "BSTAR": 0.0019102,
    "MEAN_MOTION_DOT": 0.00076841,
    "MEAN_MOTION_DDOT": 0.0,
    "TLE_LINE1": "1 65419U 25192R   25315.32370838  .00076841  00000+0  19102-2 0  9994",
    "TLE_LINE2": "2 65419  53.1588  69.8404 0001422 114.4354 245.6799 15.39643285 11155",
    "COMMENT": "Grouped by shell and plane from TLE"
  },
  {
    "OBJECT_NAME": "STARLINK-35138",
    "OBJECT_ID": "25192S",
    "EPOCH": "2025-11-11T07:32:45.965760",
    "MEAN_MOTION": 15.39675049,
    "ECCENTRICITY": 0.0002472,
    "INCLINATION": 53.1582,
    "RA_OF_ASC_NODE": 69.7808,
    "ARG_OF_PERICENTER": 73.6249,
    "MEAN_ANOMALY": 286.5027,
    "EPHEMERIS_TYPE": 0,
    "CLASSIFICATION_TYPE": "U",
    "NORAD_CAT_ID": 65420,
    "ELEMENT_SET_NO": 999,
    "REV_AT_EPOCH": 1115,
    "BSTAR": 0.0016851,
    "MEAN_MOTION_DOT": 0.00067729,
    "MEAN_MOTION_DDOT": 0.0,
    "TLE_LINE1": "1 65420U 25192S   25315.31442090  .00067729  00000+0  16851-2 0  9998",
    "TLE_LINE2": "2 65420  53.1582  69.7808 0002472  73.6249 286.5027 15.39675049 11154",
    "COMMENT": "Grouped by shell and plane from TLE"
  },
  {
    "OBJECT_NAME": "STARLINK-35146",
    "OBJECT_ID": "25192T",
    "EPOCH": "2025-11-11T07:26:04.752672",
    "MEAN_MOTION": 15.39652599,
    "ECCENTRICITY": 0.0001411,
    "INCLINATION": 53.1589,
    "RA_OF_ASC_NODE": 69.7506,
    "ARG_OF_PERICENTER": 77.8381,
    "MEAN_ANOMALY": 282.2782,
    "EPHEMERIS_TYPE": 0,
    "CLASSIFICATION_TYPE": "U",
    "NORAD_CAT_ID": 65421,
    "ELEMENT_SET_NO": 999,
    "REV_AT_EPOCH": 1114,
    "BSTAR": 0.0017505,
    "MEAN_MOTION_DOT": 0.00070343,
    "MEAN_MOTION_DDOT": 0.0,
    "TLE_LINE1": "1 65421U 25192T   25315.30977723  .00070343  00000+0  17505-2 0  9997",
    "TLE_LINE2": "2 65421  53.1589  69.7506 0001411  77.8381 282.2782 15.39652599 11147",
    "COMMENT": "Grouped by shell and plane from TLE"
  },
  {
    "OBJECT_NAME": "STARLINK-34837",
    "OBJECT_ID": "25192V",
    "EPOCH": "2025-11-11T07:39:26.872128",
    "MEAN_MOTION": 15.39676922,
    "ECCENTRICITY": 0.0001309,
    "INCLINATION": 53.1592,
    "RA_OF_ASC_NODE": 69.8094,
    "ARG_OF_PERICENTER": 65.47,
    "MEAN_ANOMALY": 294.6441,
    "EPHEMERIS_TYPE": 0,
    "CLASSIFICATION_TYPE": "U",
    "NORAD_CAT_ID": 65423,
    "ELEMENT_SET_NO": 999,
    "REV_AT_EPOCH": 1115,
    "BSTAR": 0.0014925,
    "MEAN_MOTION_DOT": 0.00059883,
    "MEAN_MOTION_DDOT": 0.0,
    "TLE_LINE1": "1 65423U 25192V   25315.31906102  .00059883  00000+0  14925-2 0  9992",
    "TLE_LINE2": "2 65423  53.1592  69.8094 0001309  65.4700 294.6441 15.39676922 11156",
    "COMMENT": "Grouped by shell and plane from TLE"
  },
  {
    "OBJECT_NAME": "STARLINK-34670",
    "OBJECT_ID": "25192W",
    "EPOCH": "2025-11-11T07:19:23.587968",
    "MEAN_MOTION": 15.39679123,
    "ECCENTRICITY": 0.000258,
    "INCLINATION": 53.1574,
    "RA_OF_ASC_NODE": 69.7225,
    "ARG_OF_PERICENTER": 68.1049,
    "MEAN_ANOMALY": 292.023,
    "EPHEMERIS_TYPE": 0,
    "CLASSIFICATION_TYPE": "U",
    "NORAD_CAT_ID": 65424,
    "ELEMENT_SET_NO": 999,
    "REV_AT_EPOCH": 1115,
    "BSTAR": 0.0014336,
    "MEAN_MOTION_DOT": 0.00057491,
    "MEAN_MOTION_DDOT": 0.0,
    "TLE_LINE1": "1 65424U 25192W   25315.30513412  .00057491  00000+0  14336-2 0  9999",
    "TLE_LINE2": "2 65424  53.1574  69.7225 0002580  68.1049 292.0230 15.39679123 11154",
    "COMMENT": "Grouped by shell and plane from TLE"
  },
  {
    "OBJECT_NAME": "STARLINK-35095",
    "OBJECT_ID": "25192X",
    "EPOCH": "2025-11-11T06:59:20.082624",
    "MEAN_MOTION": 15.39695911,
    "ECCENTRICITY": 0.0002969,
    "INCLINATION": 53.1576,
    "RA_OF_ASC_NODE": 69.635,
    "ARG_OF_PERICENTER": 77.7876,
    "MEAN_ANOMALY": 282.3461,
    "EPHEMERIS_TYPE": 0,
    "CLASSIFICATION_TYPE": "U",
    "NORAD_CAT_ID": 65425,
    "ELEMENT_SET_NO": 999,
    "REV_AT_EPOCH": 1115,
    "BSTAR": 0.0024534,
    "MEAN_MOTION_DOT": 0.00099275,
    "MEAN_MOTION_DDOT": 0.0,
    "TLE_LINE1": "1 65425U 25192X   25315.29120466  .00099275  00000+0  24534-2 0  9998",
    "TLE_LINE2": "2 65425  53.1576  69.6350 0002969  77.7876 282.3461 15.39695911 11151",
    "COMMENT": "Grouped by shell and plane from TLE"
  },
  {
    "OBJECT_NAME": "STARLINK-34883",
    "OBJECT_ID": "25192Y",
    "EPOCH": "2025-11-11T07:06:02.176128",
    "MEAN_MOTION": 15.39671393,
    "ECCENTRICITY": 0.0001147,
    "INCLINATION": 53.159,
    "RA_OF_ASC_NODE": 69.6621,
    "ARG_OF_PERICENTER": 14.6137,
    "MEAN_ANOMALY": 345.4901,
    "EPHEMERIS_TYPE": 0,
    "CLASSIFICATION_TYPE": "U",
    "NORAD_CAT_ID": 65426,
    "ELEMENT_SET_NO": 999,
    "REV_AT_EPOCH": 1114,
    "BSTAR": 0.0015823999999999999,
    "MEAN_MOTION_DOT": 0.00063531,
    "MEAN_MOTION_DDOT": 0.0,
    "TLE_LINE1": "1 65426U 25192Y   25315.29585852  .00063531  00000+0  15824-2 0  9991",
    "TLE_LINE2": "2 65426  53.1590  69.6621 0001147  14.6137 345.4901 15.39671393 11143",
    "COMMENT": "Grouped by shell and plane from TLE"
  },
  {
    "OBJECT_NAME": "STARLINK-34916",
    "OBJECT_ID": "25192Z",
    "EPOCH": "2025-11-11T07:12:42.278112",
    "MEAN_MOTION": 15.39668476,
    "ECCENTRICITY": 0.0001871,
    "INCLINATION": 53.1564,
    "RA_OF_ASC_NODE": 69.6921,
    "ARG_OF_PERICENTER": 71.2131,
    "MEAN_ANOMALY": 288.9077,
    "EPHEMERIS_TYPE": 0,
    "CLASSIFICATION_TYPE": "U",
    "NORAD_CAT_ID": 65427,
    "ELEMENT_SET_NO": 999,
    "REV_AT_EPOCH": 1115,
    "BSTAR": 0.0014962,
    "MEAN_MOTION_DOT": 0.00060015,
    "MEAN_MOTION_DDOT": 0.0,
    "TLE_LINE1": "1 65427U 25192Z   25315.30048933  .00060015  00000+0  14962-2 0  9994",
    "TLE_LINE2": "2 65427  53.1564  69.6921 0001871  71.2131 288.9077 15.39668476 11159",
    "COMMENT": "Grouped by shell and plane from TLE"
  }
]